TIANMU-1 20             
1 58661U 23208B   26193.58635536  .00005013  00000+0  15903-3 0  9992
2 58661  97.4464 310.6864 0006095 222.5078 137.5693 15.33139254141316
TIANMU-1 21             
1 58662U 23208C   26193.60107419  .00006042  00000+0  17732-3 0  9995
2 58662  97.4523 313.4932 0006446 214.0431 146.0399 15.35521774141467
TIANMU-1 22             
1 58663U 23208D   26193.55883670  .00004578  00000+0  15356-3 0  9992
2 58663  97.4519 309.9110 0002547 230.7280 129.3735 15.31404104141210
TIANMU-1 15             
1 58700U 24004A   26193.59142770  .00003143  00000+0  12178-3 0  9998
2 58700  97.4667  19.7821 0005882 239.7787 120.2870 15.26897126139656
TIANMU-1 16             
1 58701U 24004B   26193.64660006  .00003047  00000+0  11780-3 0  9993
2 58701  97.4614  19.0553 0004351 257.6928 102.3824 15.27000373139662
TIANMU-1 17             
1 58702U 24004C   26193.63207903  .00003221  00000+0  12438-3 0  9991
2 58702  97.4641  19.5351 0003853 264.9535  95.1264 15.26998405139652
TIANMU-1 18             
1 58703U 24004D   26193.60802426  .00003070  00000+0  11898-3 0  9991
2 58703  97.4659  19.7735 0003590 236.9983 123.0911 15.26914081139652
INSAT-3DS               
1 58990U 24033A   26193.43668422 -.00000154  00000+0  00000+0 0  9998
2 58990   0.0992 265.2862 0001032 225.9835  38.3381  1.00271186 47322
METEOR-M2 4             
1 59051U 24039A   26193.57688106 -.00000022  00000+0  99521-5 0  9995
2 59051  98.7023 152.5576 0008245  95.2597 264.9522 14.22431991122874
GOES 19                 
1 60133U 24119A   26193.29819538 -.00000246  00000+0  00000+0 0  9997
2 60133   0.0096 274.3288 0000603 292.0007 116.0078  1.00269743  7218
MTG-S1                  
1 64723U 25143A   26193.34900604 -.00000005  00000+0  00000+0 0  9998
2 64723   0.5859 344.4073 0003502 262.0724 168.9803  1.00272931  3675
METOP-SGA1              
1 65159U 25172A   26193.08652236 -.00000002  00000+0  19559-4 0  9991
2 65159  98.6631 252.2877 0007236 341.6268  18.4646 14.19818813 47321
FENGYUN 3H              
1 65815U 25219A   26193.40885764 -.00000005  00000+0  18037-4 0  9995
2 65815  98.6772 133.6882 0001202  62.4985 297.6314 14.19924550 40967
