OBJECT_NAME,OBJECT_ID,EPOCH,MEAN_MOTION,ECCENTRICITY,INCLINATION,RA_OF_ASC_NODE,ARG_OF_PERICENTER,MEAN_ANOMALY,EPHEMERIS_TYPE,CLASSIFICATION_TYPE,NORAD_CAT_ID,ELEMENT_SET_NO,REV_AT_EPOCH,BSTAR,MEAN_MOTION_DOT,MEAN_MOTION_DDOT
TIANMU-1 20,2023-208B,2026-07-12T14:04:21.103104,15.33139254,.00060957,97.4464,310.6864,222.5078,137.5693,0,U,58661,999,14131,.15902823E-3,.5013E-4,0
TIANMU-1 21,2023-208C,2026-07-12T14:25:32.810016,15.35521774,.00064461,97.4523,313.4932,214.0431,146.0399,0,U,58662,999,14146,.17732478E-3,.6042E-4,0
TIANMU-1 22,2023-208D,2026-07-12T13:24:43.490880,15.31404104,.00025473,97.4519,309.9110,230.7280,129.3735,0,U,58663,999,14121,.15355979E-3,.4578E-4,0
TIANMU-1 15,2024-004A,2026-07-12T14:11:39.353280,15.26897126,.00058825,97.4667,19.7821,239.7787,120.2870,0,U,58700,999,13965,.12177518E-3,.3143E-4,0
TIANMU-1 16,2024-004B,2026-07-12T15:31:06.245184,15.27000373,.00043514,97.4614,19.0553,257.6928,102.3824,0,U,58701,999,13966,.11779599E-3,.3047E-4,0
TIANMU-1 17,2024-004C,2026-07-12T15:10:11.628192,15.26998405,.00038537,97.4641,19.5351,264.9535,95.1264,0,U,58702,999,13965,.12437504E-3,.3221E-4,0
TIANMU-1 18,2024-004D,2026-07-12T14:35:33.296064,15.26914081,.00035904,97.4659,19.7735,236.9983,123.0911,0,U,58703,999,13965,.11898094E-3,.307E-4,0
INSAT-3DS,2024-033A,2026-07-12T10:28:49.516608,1.00271186,.00010325,0.0992,265.2862,225.9835,38.3381,0,U,58990,999,4732,0,-.154E-5,0
METEOR-M2 4,2024-039A,2026-07-12T13:50:42.523584,14.22431991,.00082455,98.7023,152.5576,95.2597,264.9522,0,U,59051,999,12287,.9952084E-5,-.22E-6,0
GOES 19,2024-119A,2026-07-12T07:09:24.080832,1.00269743,.0000603,0.0096,274.3288,292.0007,116.0078,0,U,60133,999,721,0,-.246E-5,0
MTG-S1,2025-143A,2026-07-12T08:22:34.121856,1.00272931,.00035025,0.5859,344.4073,262.0724,168.9803,0,U,64723,999,367,0,-.5E-7,0
METOP-SGA1,2025-172A,2026-07-12T02:04:35.531904,14.19818813,.00072365,98.6631,252.2877,341.6268,18.4646,0,U,65159,999,4732,.19558957E-4,-.2E-7,0
FENGYUN 3H,2025-219A,2026-07-12T09:48:45.300096,14.19924550,.0001202,98.6772,133.6882,62.4985,297.6314,0,U,65815,999,4096,.18036836E-4,-.5E-7,0
